NORAD_CAT_ID,OBJECT_NAME,OBJECT_TYPE,EPOCH,MEAN_MOTION,ECCENTRICITY,INCLINATION,RA_OF_ASC_NODE,ARG_OF_PERICENTER,MEAN_ANOMALY,BSTAR,MEAN_MOTION_DOT,MEAN_MOTION_DDOT,TLE_LINE0,TLE_LINE1,TLE_LINE2,SEMIMAJOR_AXIS,PERIOD,APOGEE,PERIGEE,DECAYED
51462.0,STARLINK-3166,PAYLOAD,2023-07-12 08:33:23,15.08828482,0.0001051,53.219,319.6172,83.52,276.5912,0.0002331,3.423e-05,0.0,0 STARLINK-3166,1 51462U 22010G   23193.35651839  .00003423  00000-0  23310-3 0  9995,2 51462  53.2190 319.6172 0001051  83.5200 276.5912 15.08828482 80651,6917.916,95.438,540.508,539.054,0.0
51462.0,STARLINK-3166,PAYLOAD,2023-07-12 14:54:55,15.08844876,9.99e-05,53.2195,318.4276,80.61,279.5005,0.00010751,1.424e-05,0.0,0 STARLINK-3166,1 51462U 22010G   23193.62147034  .00001424  00000-0  10751-3 0  9996,2 51462  53.2195 318.4276 0000999  80.6100 279.5005 15.08844876 80690,6917.865,95.437,540.422,539.039,0.0
51462.0,STARLINK-3166,PAYLOAD,2023-07-13 14:45:42,15.08840204,0.0001051,53.2195,313.9662,97.4336,262.6775,-5.2715e-06,-3.72e-06,0.0,0 STARLINK-3166,1 51462U 22010G   23194.61507539 -.00000372  00000-0 -52715-5 0  9997,2 51462  53.2195 313.9662 0001051  97.4336 262.6775 15.08840204 80841,6917.88,95.438,540.472,539.018,0.0
51462.0,STARLINK-3166,PAYLOAD,2023-07-15 00:08:48,15.08842113,0.0001051,53.2191,307.7221,91.6201,268.4911,9.7556e-05,1.265e-05,0.0,0 STARLINK-3166,1 51462U 22010G   23196.00611236  .00001265  00000-0  97556-4 0  9993,2 51462  53.2191 307.7221 0001051  91.6201 268.4911 15.08842113 81057,6917.874,95.437,540.466,539.012,0.0
51462.0,STARLINK-3166,PAYLOAD,2023-07-15 09:41:08,15.08829241,9.03e-05,53.2182,305.9387,95.6221,264.4874,-4.1634e-05,-9.5e-06,0.0,0 STARLINK-3166,1 51462U 22010G   23196.40356619 -.00000950  00000-0 -41634-4 0  9996,2 51462  53.2182 305.9387 0000903  95.6221 264.4874 15.08829241 81119,6917.913,95.438,540.403,539.154,0.0
51462.0,STARLINK-3166,PAYLOAD,2023-07-15 23:59:35,15.08835021,0.0001027,53.2182,303.2599,95.3509,264.76,4.3512e-05,4.05e-06,0.0,0 STARLINK-3166,1 51462U 22010G   23196.99972153  .00000405  00000-0  43512-4 0  9997,2 51462  53.2182 303.2599 0001027  95.3509 264.7600 15.08835021 81202,6917.896,95.438,540.471,539.05,0.0
51462.0,STARLINK-3166,PAYLOAD,2023-07-17 14:08:51,15.08827186,0.0001048,53.219,296.1251,104.0569,256.054,0.00045111,6.896e-05,0.0,0 STARLINK-3166,1 51462U 22010G   23198.58948054  .00006896  00000-0  45111-3 0  9993,2 51462  53.2190 296.1251 0001048 104.0569 256.0540 15.08827186 81449,6917.92,95.438,540.51,539.06,0.0
51462.0,STARLINK-3166,PAYLOAD,2023-07-18 13:59:37,15.0884868,0.0001513,53.2195,291.6647,67.4089,292.7063,0.00012589,1.717e-05,0.0,0 STARLINK-3166,1 51462U 22010G   23199.58307641  .00001717  00000-0  12589-3 0  9995,2 51462  53.2195 291.6647 0001513  67.4089 292.7063 15.08848680 81594,6917.854,95.437,540.766,538.672,0.0
51462.0,STARLINK-3166,PAYLOAD,2023-07-19 10:39:39,15.0883383,0.0001231,53.2189,287.7991,87.8518,272.2615,-5.3861e-05,-1.145e-05,0.0,0 STARLINK-3166,1 51462U 22010G   23200.44421070 -.00001145  00000-0 -53861-4 0  9992,2 51462  53.2189 287.7991 0001231  87.8518 272.2615 15.08833830 81727,6917.899,95.438,540.616,538.913,0.0
51462.0,STARLINK-3166,PAYLOAD,2023-07-20 12:05:48,15.08851071,0.0001132,53.2184,283.0408,87.9159,272.1962,3.8214e-05,3.21e-06,0.0,0 STARLINK-3166,1 51462U 22010G   23201.50403933  .00000321  00000-0  38214-4 0  9996,2 51462  53.2184 283.0408 0001132  87.9159 272.1962 15.08851071 81884,6917.847,95.437,540.495,538.928,0.0
51462.0,STARLINK-3166,PAYLOAD,2023-07-21 05:35:04,15.08837439,0.0001239,53.219,279.7705,98.9852,261.128,0.00017291,2.465e-05,0.0,0 STARLINK-3166,1 51462U 22010G   23202.23268533  .00002465  00000-0  17291-3 0  9994,2 51462  53.2190 279.7705 0001239  98.9852 261.1280 15.08837439 81998,6917.888,95.438,540.61,538.896,0.0
51462.0,STARLINK-3166,PAYLOAD,2023-07-24 13:04:21,15.0883428,0.0001162,53.2171,264.9013,89.0419,271.0706,9.306e-05,1.193e-05,0.0,0 STARLINK-3166,1 51462U 22010G   23205.54469194  .00001193  00000-0  93060-4 0  9993,2 51462  53.2171 264.9013 0001162  89.0419 271.0706 15.08834280 82029,6917.898,95.438,540.567,538.959,0.0
51462.0,STARLINK-3166,PAYLOAD,2023-07-25 11:19:44,15.08843997,0.0001009,53.2165,260.7376,85.4452,274.6656,8.3744e-05,1.045e-05,0.0,0 STARLINK-3166,1 51462U 22010G   23206.47204710  .00001045  00000-0  83744-4 0  9991,2 51462  53.2165 260.7376 0001009  85.4452 274.6656 15.08843997 82168,6917.868,95.437,540.431,539.035,0.0
51462.0,STARLINK-3166,PAYLOAD,2023-07-26 03:13:36,15.08840184,0.0001124,53.2165,257.7643,77.5808,282.531,7.9919e-05,9.84e-06,0.0,0 STARLINK-3166,1 51462U 22010G   23207.13445077  .00000984  00000-0  79919-4 0  9998,2 51462  53.2165 257.7643 0001124  77.5808 282.5310 15.08840184 82267,6917.88,95.438,540.522,538.967,0.0
51462.0,STARLINK-3166,PAYLOAD,2023-07-26 20:42:50,15.08847619,0.0001165,53.2165,254.4935,77.355,282.7573,0.00012201,1.655e-05,0.0,0 STARLINK-3166,1 51462U 22010G   23207.86308389  .00001655  00000-0  12201-3 0  9998,2 51462  53.2165 254.4935 0001165  77.3550 282.7573 15.08847619 82377,6917.857,95.437,540.528,538.916,0.0
51462.0,STARLINK-3166,PAYLOAD,2023-07-27 09:25:55,15.08847223,0.0001112,53.2164,252.1142,86.6039,273.508,7.8829e-05,9.67e-06,0.0,0 STARLINK-3166,1 51462U 22010G   23208.39300322  .00000967  00000-0  78829-4 0  9990,2 51462  53.2164 252.1142 0001112  86.6039 273.5080 15.08847223 82921,6917.858,95.437,540.493,538.954,0.0
51462.0,STARLINK-3166,PAYLOAD,2023-07-27 20:33:37,15.08843346,0.0001004,53.2161,250.0322,90.6235,269.4872,5.6621e-05,6.14e-06,0.0,0 STARLINK-3166,1 51462U 22010G   23208.85668430  .00000614  00000-0  56621-4 0  9993,2 51462  53.2161 250.0322 0001004  90.6235 269.4872 15.08843346 82529,6917.87,95.437,540.43,539.041,0.0
51462.0,STARLINK-3166,PAYLOAD,2023-07-28 02:55:10,15.08835142,0.0001154,53.2152,248.843,80.3946,279.7176,-3.6689e-05,-8.72e-06,0.0,0 STARLINK-3166,1 51462U 22010G   23209.12165303 -.00000872  00000-0 -36689-4 0  9995,2 51462  53.2152 248.8430 0001154  80.3946 279.7176 15.08835142 83038,6917.895,95.438,540.559,538.962,0.0
51462.0,STARLINK-3166,PAYLOAD,2023-07-28 12:27:29,15.08834075,0.0001122,53.2169,247.0587,90.1331,269.9789,-6.3221e-05,-1.294e-05,0.0,0 STARLINK-3166,1 51462U 22010G   23209.51909505 -.00001294  00000-0 -63221-4 0  9999,2 51462  53.2169 247.0587 0001122  90.1331 269.9789 15.08834075 82621,6917.898,95.438,540.54,538.987,0.0
51462.0,STARLINK-3166,PAYLOAD,2023-07-29 09:07:30,15.0883774,0.0001305,53.2174,243.193,104.7534,255.3603,1.8025e-05,-1e-08,0.0,0 STARLINK-3166,1 51462U 22010G   23210.38021105 -.00000001  00000-0  18025-4 0  9993,2 51462  53.2174 243.1930 0001305 104.7534 255.3603 15.08837740 83229,6917.887,95.438,540.655,538.85,0.0
51462.0,STARLINK-3166,PAYLOAD,2023-07-30 18:30:36,15.0883662,0.0001186,53.2168,236.9484,91.3286,268.7842,9.329e-05,1.197e-05,0.0,0 STARLINK-3166,1 51462U 22010G   23211.77125356  .00001197  00000-0  93290-4 0  9993,2 51462  53.2168 236.9484 0001186  91.3286 268.7842 15.08836620 83430,6917.891,95.438,540.576,538.935,0.0
51462.0,STARLINK-3166,PAYLOAD,2023-07-31 23:07:33,15.08837824,0.0001142,53.2163,231.5962,89.8454,270.2669,1.9692e-05,2.6e-07,0.0,0 STARLINK-3166,1 51462U 22010G   23212.96357673  .00000026  00000-0  19692-4 0  9998,2 51462  53.2163 231.5962 0001142  89.8454 270.2669 15.08837824 83610,6917.887,95.438,540.542,538.962,0.0
51462.0,STARLINK-3166,PAYLOAD,2023-08-02 02:09:06,15.0883799,0.0001116,53.2162,226.5408,88.1231,271.9889,5.7039e-05,6.2e-06,0.0,0 STARLINK-3166,1 51462U 22010G   23214.08965639  .00000620  00000-0  57039-4 0  9997,2 51462  53.2162 226.5408 0001116  88.1231 271.9889 15.08837990 83788,6917.887,95.438,540.524,538.979,0.0
51462.0,STARLINK-3166,PAYLOAD,2023-08-03 09:56:48,15.08843201,0.0001161,53.2162,220.5931,88.3213,271.7913,9.7215e-05,1.26e-05,0.0,0 STARLINK-3166,1 51462U 22010G   23215.41445232  .00001260  00000-0  97215-4 0  9998,2 51462  53.2162 220.5931 0001161  88.3213 271.7913 15.08843201 83985,6917.871,95.437,540.539,538.932,0.0
51462.0,STARLINK-3166,PAYLOAD,2023-08-04 00:15:17,15.08837624,0.0001188,53.2157,217.9163,90.5089,269.6039,1.2441e-05,-9e-07,0.0,0 STARLINK-3166,1 51462U 22010G   23216.01061832 -.00000090  00000-0  12441-4 0  9994,2 51462  53.2157 217.9163 0001188  90.5089 269.6039 15.08837624 84079,6917.888,95.438,540.574,538.931,0.0
51462.0,STARLINK-3166,PAYLOAD,2023-08-05 03:16:50,15.08840813,0.000124,53.2145,212.8609,89.2598,270.8537,1.9071e-05,1.6e-07,0.0,0 STARLINK-3166,1 51462U 22010G   23217.13669605  .00000016  00000-0  19071-4 0  9993,2 51462  53.2145 212.8609 0001240  89.2598 270.8537 15.08840813 84244,6917.878,95.438,540.601,538.885,0.0
51462.0,STARLINK-3166,PAYLOAD,2023-08-06 04:43:00,15.08843642,0.0001373,53.2164,208.1018,110.5975,249.5164,7.5632e-05,9.16e-06,0.0,0 STARLINK-3166,1 51462U 22010G   23218.19653110  .00000916  00000-0  75632-4 0  9998,2 51462  53.2164 208.1018 0001373 110.5975 249.5164 15.08843642 84401,6917.869,95.437,540.684,538.784,0.0
51462.0,STARLINK-3166,PAYLOAD,2023-08-06 15:50:42,15.08838145,0.0001036,53.2169,206.0229,90.6362,269.4749,3.7587e-05,3.1e-06,0.0,0 STARLINK-3166,1 51462U 22010G   23218.66021665  .00000310  00000-0  37587-4 0  9999,2 51462  53.2169 206.0229 0001036  90.6362 269.4749 15.08838145 84470,6917.886,95.438,540.468,539.034,0.0
51462.0,STARLINK-3166,PAYLOAD,2023-08-07 07:44:34,15.08836468,0.0001191,53.2164,203.0499,91.2478,268.8651,-4.9769e-05,-1.08e-05,0.0,0 STARLINK-3166,1 51462U 22010G   23219.32262343 -.00001080  00000-0 -49769-4 0  9995,2 51462  53.2164 203.0499 0001191  91.2478 268.8651 15.08836468 84570,6917.891,95.438,540.58,538.932,0.0
51462.0,STARLINK-3166,PAYLOAD,2023-08-08 07:35:20,15.08851707,0.0001574,53.2159,198.5892,106.9483,253.1682,-3.2761e-05,-8.1e-06,0.0,0 STARLINK-3166,1 51462U 22010G   23220.31621443 -.00000810  00000-0 -32761-4 0  9990,2 51462  53.2159 198.5892 0001574 106.9483 253.1682 15.08851707 84725,6917.845,95.437,540.798,538.621,0.0
